{
  "type": "FeatureCollection",
  "features": [
    {
      "type": "Feature",
      "properties": {
        "norad_id": 30838,
        "name": "FENGYUN 1C DEB",
        "group": "fengyun-1c-debris",
        "lat": 58.094445391826795,
        "lon": -98.36154881768819,
        "alt_km": 711.2939326385094,
        "timestamp": "2025-12-27T13:34:49.574264+00:00",
        "meta_object_name": "FENGYUN 1C DEB",
        "meta_object_id": "1999-025AVY",
        "meta_epoch": "2025-12-26T17:24:24.339744",
        "meta_mean_motion": 14.47975462,
        "meta_eccentricity": 0.00354132,
        "meta_inclination": 99.0425,
        "meta_ra_of_asc_node": 275.5603,
        "meta_arg_of_pericenter": 114.622,
        "meta_mean_anomaly": 245.8666,
        "meta_ephemeris_type": 0,
        "meta_classification_type": "U",
        "meta_norad_cat_id": 30838,
        "meta_element_set_no": 999,
        "meta_rev_at_epoch": 97516,
        "meta_bstar": 0.0024954367,
        "meta_mean_motion_dot": 9.297e-05,
        "meta_mean_motion_ddot": 0,
        "tle_line1": "1 30838U 99025AVY 25360.72528171  .00009297  00000+0  24954-2 0  9998",
        "tle_line2": "2 30838  99.0425 275.5603 0035413 114.6220 245.8666 14.47975462975167"
      },
      "geometry": {
        "type": "Point",
        "coordinates": [
          -98.36154881768819,
          58.094445391826795
        ]
      }
    },
    {
      "type": "Feature",
      "properties": {
        "norad_id": 30840,
        "name": "FENGYUN 1C DEB",
        "group": "fengyun-1c-debris",
        "lat": 7.774389876403757,
        "lon": -166.42353937193906,
        "alt_km": 825.2390033250285,
        "timestamp": "2025-12-27T13:34:49.574274+00:00",
        "meta_object_name": "FENGYUN 1C DEB",
        "meta_object_id": "1999-025AWA",
        "meta_epoch": "2025-12-26T12:07:59.151072",
        "meta_mean_motion": 14.61247002,
        "meta_eccentricity": 0.0216339,
        "meta_inclination": 98.0229,
        "meta_ra_of_asc_node": 11.4441,
        "meta_arg_of_pericenter": 327.3141,
        "meta_mean_anomaly": 31.4823,
        "meta_ephemeris_type": 0,
        "meta_classification_type": "U",
        "meta_norad_cat_id": 30840,
        "meta_element_set_no": 999,
        "meta_rev_at_epoch": 73332,
        "meta_bstar": 0.0008072,
        "meta_mean_motion_dot": 5.501e-05,
        "meta_mean_motion_ddot": 0,
        "tle_line1": "1 30840U 99025AWA 25360.50554573  .00005501  00000+0  80720-3 0  9990",
        "tle_line2": "2 30840  98.0229  11.4441 0216339 327.3141  31.4823 14.61247002733323"
      },
      "geometry": {
        "type": "Point",
        "coordinates": [
          -166.42353937193906,
          7.774389876403757
        ]
      }
    },
    {
      "type": "Feature",
      "properties": {
        "norad_id": 30843,
        "name": "FENGYUN 1C DEB",
        "group": "fengyun-1c-debris",
        "lat": -75.18359036220394,
        "lon": -142.06020826423958,
        "alt_km": 830.2826243955406,
        "timestamp": "2025-12-27T13:34:49.574284+00:00",
        "meta_object_name": "FENGYUN 1C DEB",
        "meta_object_id": "1999-025AWD",
        "meta_epoch": "2025-12-24T03:23:32.017920",
        "meta_mean_motion": 14.52491521,
        "meta_eccentricity": 0.01488463,
        "meta_inclination": 98.841,
        "meta_ra_of_asc_node": 70.3765,
        "meta_arg_of_pericenter": 85.3289,
        "meta_mean_anomaly": 276.4887,
        "meta_ephemeris_type": 0,
        "meta_classification_type": "U",
        "meta_norad_cat_id": 30843,
        "meta_element_set_no": 999,
        "meta_rev_at_epoch": 99490,
        "meta_bstar": 0.00012943843,
        "meta_mean_motion_dot": 5.54e-06,
        "meta_mean_motion_ddot": 0,
        "tle_line1": "1 30843U 99025AWD 25358.14134280  .00000554  00000+0  12944-3 0  9995",
        "tle_line2": "2 30843  98.8410  70.3765 0148846  85.3289 276.4887 14.52491521994901"
      },
      "geometry": {
        "type": "Point",
        "coordinates": [
          -142.06020826423958,
          -75.18359036220394
        ]
      }
    },
    {
      "type": "Feature",
      "properties": {
        "norad_id": 30845,
        "name": "FENGYUN 1C DEB",
        "group": "fengyun-1c-debris",
        "lat": 66.88517570814047,
        "lon": -159.4037764286108,
        "alt_km": 1033.983211960015,
        "timestamp": "2025-12-27T13:34:49.574294+00:00",
        "meta_object_name": "FENGYUN 1C DEB",
        "meta_object_id": "1999-025AWF",
        "meta_epoch": "2025-12-26T05:42:50.443776",
        "meta_mean_motion": 13.7686738,
        "meta_eccentricity": 0.0192212,
        "meta_inclination": 98.3793,
        "meta_ra_of_asc_node": 359.2252,
        "meta_arg_of_pericenter": 233.7548,
        "meta_mean_anomaly": 141.9902,
        "meta_ephemeris_type": 0,
        "meta_classification_type": "U",
        "meta_norad_cat_id": 30845,
        "meta_element_set_no": 999,
        "meta_rev_at_epoch": 94429,
        "meta_bstar": 0.00029925,
        "meta_mean_motion_dot": 3e-06,
        "meta_mean_motion_ddot": 0,
        "tle_line1": "1 30845U 99025AWF 25360.23808384  .00000300  00000+0  29925-3 0  9999",
        "tle_line2": "2 30845  98.3793 359.2252 0192212 233.7548 141.9902 13.76867380944291"
      },
      "geometry": {
        "type": "Point",
        "coordinates": [
          -159.4037764286108,
          66.88517570814047
        ]
      }
    },
    {
      "type": "Feature",
      "properties": {
        "norad_id": 30846,
        "name": "FENGYUN 1C DEB",
        "group": "fengyun-1c-debris",
        "lat": -1.1607661827400013,
        "lon": -4.070007228033102,
        "alt_km": 770.3172614227469,
        "timestamp": "2025-12-27T13:34:49.574304+00:00",
        "meta_object_name": "FENGYUN 1C DEB",
        "meta_object_id": "1999-025AWG",
        "meta_epoch": "2025-12-26T22:29:49.053120",
        "meta_mean_motion": 14.41613509,
        "meta_eccentricity": 0.0053886,
        "meta_inclination": 99.3214,
        "meta_ra_of_asc_node": 175.4354,
        "meta_arg_of_pericenter": 294.6804,
        "meta_mean_anomaly": 227.1056,
        "meta_ephemeris_type": 0,
        "meta_classification_type": "U",
        "meta_norad_cat_id": 30846,
        "meta_element_set_no": 999,
        "meta_rev_at_epoch": 98134,
        "meta_bstar": 0.00093942,
        "meta_mean_motion_dot": 3.059e-05,
        "meta_mean_motion_ddot": 0,
        "tle_line1": "1 30846U 99025AWG 25360.93737330  .00003059  00000+0  93942-3 0  9993",
        "tle_line2": "2 30846  99.3214 175.4354 0053886 294.6804 227.1056 14.41613509981345"
      },
      "geometry": {
        "type": "Point",
        "coordinates": [
          -4.070007228033102,
          -1.1607661827400013
        ]
      }
    },
    {
      "type": "Feature",
      "properties": {
        "norad_id": 30847,
        "name": "FENGYUN 1C DEB",
        "group": "fengyun-1c-debris",
        "lat": 26.92484600147618,
        "lon": 156.97969620166512,
        "alt_km": 843.4361863731492,
        "timestamp": "2025-12-27T13:34:49.574315+00:00",
        "meta_object_name": "FENGYUN 1C DEB",
        "meta_object_id": "1999-025AWH",
        "meta_epoch": "2025-12-26T22:55:05.830176",
        "meta_mean_motion": 14.17128704,
        "meta_eccentricity": 0.0065905,
        "meta_inclination": 98.7318,
        "meta_ra_of_asc_node": 160.8565,
        "meta_arg_of_pericenter": 287.2466,
        "meta_mean_anomaly": 224.401,
        "meta_ephemeris_type": 0,
        "meta_classification_type": "U",
        "meta_norad_cat_id": 30847,
        "meta_element_set_no": 999,
        "meta_rev_at_epoch": 96256,
        "meta_bstar": 0.0022896,
        "meta_mean_motion_dot": 4.67e-05,
        "meta_mean_motion_ddot": 0,
        "tle_line1": "1 30847U 99025AWH 25360.95492859  .00004670  00000+0  22896-2 0  9999",
        "tle_line2": "2 30847  98.7318 160.8565 0065905 287.2466 224.4010 14.17128704962567"
      },
      "geometry": {
        "type": "Point",
        "coordinates": [
          156.97969620166512,
          26.92484600147618
        ]
      }
    },
    {
      "type": "Feature",
      "properties": {
        "norad_id": 30848,
        "name": "FENGYUN 1C DEB",
        "group": "fengyun-1c-debris",
        "lat": -21.47871949187144,
        "lon": -159.28128065105724,
        "alt_km": 759.9476190690448,
        "timestamp": "2025-12-27T13:34:49.574325+00:00",
        "meta_object_name": "FENGYUN 1C DEB",
        "meta_object_id": "1999-025AWJ",
        "meta_epoch": "2025-12-27T06:59:07.939104",
        "meta_mean_motion": 14.34577056,
        "meta_eccentricity": 0.00435276,
        "meta_inclination": 99.06,
        "meta_ra_of_asc_node": 196.8311,
        "meta_arg_of_pericenter": 293.3106,
        "meta_mean_anomaly": 66.35,
        "meta_ephemeris_type": 0,
        "meta_classification_type": "U",
        "meta_norad_cat_id": 30848,
        "meta_element_set_no": 999,
        "meta_rev_at_epoch": 97515,
        "meta_bstar": 0.0013189787,
        "meta_mean_motion_dot": 3.718e-05,
        "meta_mean_motion_ddot": 0,
        "tle_line1": "1 30848U 99025AWJ 25361.29106411  .00003718  00000+0  13190-2 0  9993",
        "tle_line2": "2 30848  99.0600 196.8311 0043527 293.3106  66.3500 14.34577056975152"
      },
      "geometry": {
        "type": "Point",
        "coordinates": [
          -159.28128065105724,
          -21.47871949187144
        ]
      }
    }
  ]
}